PROBA-1                 
1 26958U 01049B   26193.82342203  .00001492  00000+0  99230-4 0  9991
2 26958  97.9608 203.2516 0055901  37.5596 322.9515 15.07609486347484
CUTE-1 (CO-55)          
1 27844U 03031E   26193.81805928  .00000160  00000+0  88191-4 0  9991
2 27844  98.6742 202.0549 0010788 108.7901 251.4449 14.24350634195326
CUBESAT XI-IV (CO-57)   
1 27848U 03031J   26193.53826736  .00000128  00000+0  75348-4 0  9998
2 27848  98.6772 201.4707 0010448 126.3839 233.8305 14.23633637194983
APRIZESAT 4             
1 35684U 09041D   26193.74598681  .00000345  00000+0  48023-4 0  9991
2 35684  98.1404 269.5751 0042095 237.6607 122.0528 14.83911924915153
APRIZESAT 3             
1 35686U 09041F   26193.24329514  .00001052  00000+0  95583-4 0  9994
2 35686  98.2092 347.6723 0060978 345.6704  14.2784 14.96304910920128
PROBA-2                 
1 36037U 09059B   26193.48103607  .00000089  00000+0  31240-4 0  9992
2 36037  98.2458  16.4841 0012816 197.3060 162.7701 14.54872953885200
APRIZESAT 5             
1 37792U 11044E   26193.74675928  .00000412  00000+0  59437-4 0  9995
2 37792  98.2450 127.5127 0050725 280.8012  78.7493 14.81125043802572
APRIZESAT 6             
1 37793U 11044F   26193.75595536  .00000372  00000+0  60008-4 0  9994
2 37793  98.2341 104.7757 0043259   6.0555  56.2773 14.76954509800922
PROBA-V                 
1 39159U 13021A   26193.49189182  .00000031  00000+0  31690-4 0  9993
2 39159  98.3603 170.8514 0005331  66.2840 293.8899 14.23603169684711
APRIZESAT 7             
1 39416U 13066A   26193.84721270  .00000421  00000+0  47126-4 0  9991
2 39416  97.7721 146.7007 0037080 124.8280 235.6436 14.91616097685053
APRIZESAT 8             
1 39425U 13066K   26193.76769399  .00000415  00000+0  50961-4 0  9990
2 39425  97.8228 140.8807 0045288 199.9407 160.0041 14.87694332683472
BUGSAT-1 (TITA)         
1 40014U 14033E   26193.84863365  .00003157  00000+0  16727-3 0  9995
2 40014  98.0437 287.9028 0029184  93.5964 266.8605 15.15866456659727
SAUDISAT 4              
1 40016U 14033G   26193.41198874  .00000263  00000+0  41433-4 0  9994
2 40016  97.7613 338.6788 0044484 353.1734   6.8867 14.79573890649804
APRIZESAT 9             
1 40018U 14033J   26193.59228017  .00000349  00000+0  58616-4 0  9994
2 40018  97.9090 326.1742 0067364 118.1350 242.6688 14.74250536647302
APRIZESAT 10            
1 40019U 14033K   26192.82052080  .00000330  00000+0  59735-4 0  9998
2 40019  97.9677 319.2345 0078454 194.1474 165.7536 14.70908468645876
TECHDEMOSAT-1 (TDS-1)   
1 40076U 14037H   26193.54624979  .00004438  00000+0  25107-3 0  9995
2 40076  98.3822 188.2809 0006672 167.0369 193.1032 15.13655257652068
TECHNOSAT               
1 42829U 17042E   26193.31433347  .00002176  00000+0  15666-3 0  9990
2 42829  97.4310 350.0210 0017694  12.7462 347.4209 15.05099876490485
FLYING LAPTOP           
1 42831U 17042G   26193.84730935  .00002325  00000+0  18449-3 0  9992
2 42831  97.4789 348.4132 0019817  39.9468 320.3210 15.01304050490300
HAWK-A                  
1 43765U 18099H   26193.67931596  .00004140  00000+0  16642-3 0  9999
2 43765  97.3903 245.5853 0034452 192.8190 167.2175 15.24944360416983
HAWK-B                  
1 43794U 18099AN  26193.66573963  .00003497  00000+0  14942-3 0  9995
2 43794  97.3952 244.9331 0031136 211.1132 148.8262 15.23097282416916
HAWK-C                  
1 43799U 18099AT  26193.72865411  .00005004  00000+0  17915-3 0  9998
2 43799  97.3881 246.6730 0040041 192.5496 167.4750 15.28466075417818
SALSAT                  
1 46495U 20068K   26192.54062004  .00004447  00000+0  15528-3 0  9997
2 46495  97.8855 197.0941 0008823 206.5203 153.5586 15.30139435319080
HAWK-2C                 
1 47502U 21006CT  26193.70939475  .00004068  00000+0  12213-3 0  9991
2 47502  97.2269 237.5126 0008623 107.8929 252.3255 15.34969433303418
HAWK-2A                 
1 47505U 21006CW  26193.71164323  .00004064  00000+0  12197-3 0  9994
2 47505  97.2313 238.2076 0008132 111.0893 249.1221 15.34984293303413
HAWK-2B                 
1 47508U 21006CZ  26193.64019179  .00004619  00000+0  13771-3 0  9992
2 47508  97.2182 236.4291 0008679 109.6229 250.5952 15.35112932303401
HAWK-3B                 
1 48931U 21059BE  26193.55364624  .00032206  00000+0  25051-3 0  9996
2 48931  97.6638  32.7011 0004238 208.8876 151.2152 15.71695978281833
HAWK-3C                 
1 48948U 21059BX  26193.55333511  .00035057  00000+0  27246-3 0  9990
2 48948  97.6757  38.4300 0004501 208.2392 151.8627 15.71698478281838
HAWK-3A                 
1 48957U 21059CG  26193.55322251  .00034366  00000+0  26712-3 0  9998
2 48957  97.6701  35.6142 0004422 211.0194 149.0808 15.71699440281834
HAWK-5C                 
1 52754U 22057Y   26193.83683280  .00013130  00000+0  21777-3 0  9992
2 52754  97.6606 355.1788 0003056 356.0136   4.1091 15.52272516230325
HAWK-5B                 
1 52756U 22057AA  26193.83664490  .00013191  00000+0  21876-3 0  9993
2 52756  97.6621 353.5315 0003710 341.9879  18.1241 15.52270270230323
